*******************************************************************************
Ephemeris / WWW_USER Mon Mar 24 09:37:09 2025 Pasadena, USA      / Horizons    
*******************************************************************************
Target body name: 468861 (2013 LU28)              {source: JPL#36}
Center body name: Earth (399)                     {source: DE441}
Center-site name: Mauna Kea
*******************************************************************************
Start time      : A.D. 2018-Nov-08 03:54:00.0000 UT      
Stop  time      : A.D. 2018-Nov-08 16:17:00.0000 UT      
Step-size       : 1 minutes
*******************************************************************************
Target pole/equ : undefined
Target radii    : undefined                                                    
Center geodetic : 204.5278, 19.8260847, 4.21024   {E-lon(deg),Lat(deg),Alt(km)}
Center cylindric: 204.5278, 6006.35451, 2151.0229 {E-lon(deg),Dxy(km),Dz(km)}
Center pole/equ : ITRF93                          {East-longitude positive}
Center radii    : 6378.137, 6378.137, 6356.752 km {Equator_a, b, pole_c}       
Target primary  : Sun
Vis. interferer : MOON (R_eq= 1737.400) km        {source: DE441}
Rel. light bend : Sun                             {source: DE441}
Rel. lght bnd GM: 1.3271E+11 km^3/s^2                                          
Small-body perts: Yes                             {source: SB441-N16}
Atmos refraction: NO (AIRLESS)
RA format       : HMS
Time format     : CAL 
Calendar mode   : Mixed Julian/Gregorian
RTS-only print  : NO       
EOP file        : eop.250321.p250617                                           
EOP coverage    : DATA-BASED 1962-JAN-20 TO 2025-MAR-21. PREDICTS-> 2025-JUN-16
Units conversion: 1 au= 149597870.700 km, c= 299792.458 km/s, 1 day= 86400.0 s 
Table cut-offs 1: Elevation (-90.0deg=NO ),Airmass (>38.000=NO), Daylight (YES)
Table cut-offs 2: Solar elongation (  0.0,180.0=NO ),Local Hour Angle( 0.0=NO )
Table cut-offs 3: RA/DEC angular rate (     0.0=NO )                           
*******************************************************************************
Initial IAU76/J2000 heliocentric ecliptic osculating elements (au, days, deg.):
  EPOCH=  2459491.5 ! 2021-Oct-04.00 (TDB)         Residual RMS= .14077        
   EC= .9545524767334098   QR= 8.741840911970645   TP= 2460480.7801673855      
   OM= 275.9923561772391   W=  152.9171912923278   IN= 125.3473013584344       
  Equivalent ICRF heliocentric cartesian coordinates (au, au/d):
   X=-6.020062670108302E+00  Y=-1.182282064265113E+00  Z= 8.330249486138040E+00
  VX= 2.086988006100027E-03 VY= 7.079392581348984E-03 VZ=-1.092497303529149E-03
Asteroid physical parameters (km, seconds, rotational period in hours):        
   GM= n.a.                RAD= n.a.               ROTPER= n.a.                
   H= 8.24                 G= .150                 B-V= n.a.                   
                           ALBEDO= n.a.            STYP= n.a.                  
*******************************************************************************
 Date__(UT)__HR:MN     R.A._________(ICRF)_________DEC
******************************************************
$$SOE
 2018-Nov-08 05:57     15 10 19.983357 +34 10 49.46451
 2018-Nov-08 05:58     15 10 19.993722 +34 10 49.45907
 2018-Nov-08 05:59     15 10 20.004088 +34 10 49.45364
 2018-Nov-08 06:00     15 10 20.014455 +34 10 49.44820
 2018-Nov-08 06:01     15 10 20.024823 +34 10 49.44278
 2018-Nov-08 06:02     15 10 20.035191 +34 10 49.43735
 2018-Nov-08 06:03     15 10 20.045561 +34 10 49.43193
 2018-Nov-08 06:04     15 10 20.055931 +34 10 49.42651
 2018-Nov-08 06:05     15 10 20.066302 +34 10 49.42110
 2018-Nov-08 06:06     15 10 20.076674 +34 10 49.41569
 2018-Nov-08 06:07     15 10 20.087046 +34 10 49.41029
 2018-Nov-08 06:08     15 10 20.097420 +34 10 49.40489
 2018-Nov-08 06:09     15 10 20.107794 +34 10 49.39949
 2018-Nov-08 06:10     15 10 20.118169 +34 10 49.39410
 2018-Nov-08 06:11     15 10 20.128545 +34 10 49.38871
 2018-Nov-08 06:12     15 10 20.138921 +34 10 49.38333
 2018-Nov-08 06:13     15 10 20.149298 +34 10 49.37795
 2018-Nov-08 06:14     15 10 20.159677 +34 10 49.37258
 2018-Nov-08 06:15     15 10 20.170056 +34 10 49.36721
 2018-Nov-08 06:16     15 10 20.180435 +34 10 49.36184
 2018-Nov-08 06:17     15 10 20.190816 +34 10 49.35648
 2018-Nov-08 06:18     15 10 20.201197 +34 10 49.35112
 2018-Nov-08 06:19     15 10 20.211579 +34 10 49.34577
 2018-Nov-08 06:20     15 10 20.221962 +34 10 49.34042
 2018-Nov-08 06:21     15 10 20.232346 +34 10 49.33508
 2018-Nov-08 06:22     15 10 20.242730 +34 10 49.32974
 2018-Nov-08 06:23     15 10 20.253115 +34 10 49.32440
 2018-Nov-08 06:24     15 10 20.263501 +34 10 49.31907
 2018-Nov-08 06:25     15 10 20.273888 +34 10 49.31375
 2018-Nov-08 06:26     15 10 20.284276 +34 10 49.30843
 2018-Nov-08 06:27     15 10 20.294664 +34 10 49.30311
 2018-Nov-08 06:28     15 10 20.305053 +34 10 49.29780
 2018-Nov-08 06:29     15 10 20.315443 +34 10 49.29249
 2018-Nov-08 06:30     15 10 20.325834 +34 10 49.28719
 2018-Nov-08 06:31     15 10 20.336225 +34 10 49.28189
 2018-Nov-08 06:32     15 10 20.346617 +34 10 49.27660
 2018-Nov-08 06:33     15 10 20.357010 +34 10 49.27131
 2018-Nov-08 06:34     15 10 20.367403 +34 10 49.26603
 2018-Nov-08 06:35     15 10 20.377798 +34 10 49.26075
 2018-Nov-08 06:36     15 10 20.388193 +34 10 49.25547
 2018-Nov-08 06:37     15 10 20.398589 +34 10 49.25020
 2018-Nov-08 06:38     15 10 20.408985 +34 10 49.24494
 2018-Nov-08 06:39     15 10 20.419383 +34 10 49.23968
 2018-Nov-08 06:40     15 10 20.429781 +34 10 49.23442
 2018-Nov-08 06:41     15 10 20.440180 +34 10 49.22917
 2018-Nov-08 06:42     15 10 20.450579 +34 10 49.22393
 2018-Nov-08 06:43     15 10 20.460980 +34 10 49.21869
 2018-Nov-08 06:44     15 10 20.471381 +34 10 49.21345
 2018-Nov-08 06:45     15 10 20.481782 +34 10 49.20822
 2018-Nov-08 06:46     15 10 20.492185 +34 10 49.20300
 2018-Nov-08 06:47     15 10 20.502588 +34 10 49.19778
 2018-Nov-08 06:48     15 10 20.512992 +34 10 49.19256
 2018-Nov-08 06:49     15 10 20.523397 +34 10 49.18735
 2018-Nov-08 06:50     15 10 20.533802 +34 10 49.18215
 2018-Nov-08 06:51     15 10 20.544208 +34 10 49.17695
 2018-Nov-08 06:52     15 10 20.554615 +34 10 49.17176
 2018-Nov-08 06:53     15 10 20.565023 +34 10 49.16657
 2018-Nov-08 06:54     15 10 20.575431 +34 10 49.16138
 2018-Nov-08 06:55     15 10 20.585840 +34 10 49.15620
 2018-Nov-08 06:56     15 10 20.596249 +34 10 49.15103
 2018-Nov-08 06:57     15 10 20.606660 +34 10 49.14586
 2018-Nov-08 06:58     15 10 20.617071 +34 10 49.14070
 2018-Nov-08 06:59     15 10 20.627483 +34 10 49.13554
 2018-Nov-08 07:00     15 10 20.637895 +34 10 49.13039
 2018-Nov-08 07:01     15 10 20.648308 +34 10 49.12524
 2018-Nov-08 07:02     15 10 20.658722 +34 10 49.12010
 2018-Nov-08 07:03     15 10 20.669137 +34 10 49.11496
 2018-Nov-08 07:04     15 10 20.679552 +34 10 49.10983
 2018-Nov-08 07:05     15 10 20.689968 +34 10 49.10471
 2018-Nov-08 07:06     15 10 20.700384 +34 10 49.09959
 2018-Nov-08 07:07     15 10 20.710802 +34 10 49.09447
 2018-Nov-08 07:08     15 10 20.721219 +34 10 49.08936
 2018-Nov-08 07:09     15 10 20.731638 +34 10 49.08426
 2018-Nov-08 07:10     15 10 20.742057 +34 10 49.07916
 2018-Nov-08 07:11     15 10 20.752477 +34 10 49.07407
 2018-Nov-08 07:12     15 10 20.762898 +34 10 49.06898
 2018-Nov-08 07:13     15 10 20.773319 +34 10 49.06390
 2018-Nov-08 07:14     15 10 20.783741 +34 10 49.05883
 2018-Nov-08 07:15     15 10 20.794164 +34 10 49.05376
 2018-Nov-08 07:16     15 10 20.804587 +34 10 49.04869
 2018-Nov-08 07:17     15 10 20.815011 +34 10 49.04363
 2018-Nov-08 07:18     15 10 20.825436 +34 10 49.03858
 2018-Nov-08 07:19     15 10 20.835861 +34 10 49.03353
 2018-Nov-08 07:20     15 10 20.846287 +34 10 49.02849
 2018-Nov-08 07:21     15 10 20.856713 +34 10 49.02345
 2018-Nov-08 07:22     15 10 20.867140 +34 10 49.01842
 2018-Nov-08 07:23     15 10 20.877568 +34 10 49.01340
 2018-Nov-08 07:24     15 10 20.887996 +34 10 49.00838
 2018-Nov-08 07:25     15 10 20.898426 +34 10 49.00337
 2018-Nov-08 07:26     15 10 20.908855 +34 10 48.99836
 2018-Nov-08 07:27     15 10 20.919285 +34 10 48.99336
 2018-Nov-08 07:28     15 10 20.929716 +34 10 48.98836
 2018-Nov-08 07:29     15 10 20.940148 +34 10 48.98337
 2018-Nov-08 07:30     15 10 20.950580 +34 10 48.97839
 2018-Nov-08 07:31     15 10 20.961013 +34 10 48.97341
 2018-Nov-08 07:32     15 10 20.971446 +34 10 48.96844
 2018-Nov-08 07:33     15 10 20.981880 +34 10 48.96347
 2018-Nov-08 07:34     15 10 20.992315 +34 10 48.95851
 2018-Nov-08 07:35     15 10 21.002750 +34 10 48.95356
 2018-Nov-08 07:36     15 10 21.013186 +34 10 48.94861
 2018-Nov-08 07:37     15 10 21.023622 +34 10 48.94367
 2018-Nov-08 07:38     15 10 21.034059 +34 10 48.93874
 2018-Nov-08 07:39     15 10 21.044497 +34 10 48.93381
 2018-Nov-08 07:40     15 10 21.054935 +34 10 48.92888
 2018-Nov-08 07:41     15 10 21.065374 +34 10 48.92397
 2018-Nov-08 07:42     15 10 21.075813 +34 10 48.91905
 2018-Nov-08 07:43     15 10 21.086253 +34 10 48.91415
 2018-Nov-08 07:44     15 10 21.096694 +34 10 48.90925
 2018-Nov-08 07:45     15 10 21.107135 +34 10 48.90436
 2018-Nov-08 07:46     15 10 21.117577 +34 10 48.89947
 2018-Nov-08 07:47     15 10 21.128019 +34 10 48.89459
 2018-Nov-08 07:48     15 10 21.138462 +34 10 48.88971
 2018-Nov-08 07:49     15 10 21.148905 +34 10 48.88485
 2018-Nov-08 07:50     15 10 21.159349 +34 10 48.87999
 2018-Nov-08 07:51     15 10 21.169794 +34 10 48.87513
 2018-Nov-08 07:52     15 10 21.180239 +34 10 48.87028
 2018-Nov-08 07:53     15 10 21.190684 +34 10 48.86544
 2018-Nov-08 07:54     15 10 21.201131 +34 10 48.86060
 2018-Nov-08 07:55     15 10 21.211577 +34 10 48.85577
 2018-Nov-08 07:56     15 10 21.222025 +34 10 48.85095
 2018-Nov-08 07:57     15 10 21.232472 +34 10 48.84613
 2018-Nov-08 07:58     15 10 21.242921 +34 10 48.84132
 2018-Nov-08 07:59     15 10 21.253370 +34 10 48.83651
